NORAD_CAT_ID,OBJECT_NAME,OBJECT_TYPE,EPOCH,MEAN_MOTION,ECCENTRICITY,INCLINATION,RA_OF_ASC_NODE,ARG_OF_PERICENTER,MEAN_ANOMALY,BSTAR,MEAN_MOTION_DOT,MEAN_MOTION_DDOT,TLE_LINE0,TLE_LINE1,TLE_LINE2,SEMIMAJOR_AXIS,PERIOD,APOGEE,PERIGEE,DECAYED
51801.0,STARLINK-3592,PAYLOAD,2024-08-08 22:33:58,15.08848107,0.0001405,53.2171,62.7369,85.6137,274.5016,0.00018293,2.625e-05,0.0,0 STARLINK-3592,1 51801U 22017AK  24221.94026140  .00002625  00000-0  18293-3 0  9995,2 51801  53.2171  62.7369 0001405  85.6137 274.5016 15.08848107136703,6917.856,95.437,540.693,538.749,0.0
51801.0,STARLINK-3592,PAYLOAD,2024-08-09 12:52:27,15.0884477,0.0001521,53.2175,60.0649,77.6431,282.4732,0.00010219,1.339e-05,0.0,0 STARLINK-3592,1 51801U 22017AK  24222.53642399  .00001339  00000-0  10219-3 0  9992,2 51801  53.2175  60.0649 0001521  77.6431 282.4732 15.08844770136790,6917.866,95.437,540.783,538.679,0.0
51801.0,STARLINK-3592,PAYLOAD,2024-08-09 20:49:22,15.08852695,0.0001277,53.2171,58.5713,77.8482,282.2653,0.00029689,4.442e-05,0.0,0 STARLINK-3592,1 51801U 22017AK  24222.86761825  .00004442  00000-0  29689-3 0  9993,2 51801  53.2171  58.5713 0001277  77.8482 282.2653 15.08852695136847,6917.842,95.437,540.59,538.823,0.0
51801.0,STARLINK-3592,PAYLOAD,2024-08-09 22:24:45,15.0885396,0.0001241,53.2171,58.2735,79.8765,280.2367,0.000303,4.539e-05,0.0,0 STARLINK-3592,1 51801U 22017AK  24222.93385703  .00004539  00000-0  30300-3 0  9997,2 51801  53.2171  58.2735 0001241  79.8765 280.2367 15.08853960136852,6917.838,95.437,540.561,538.844,0.0
51801.0,STARLINK-3592,PAYLOAD,2024-08-10 12:43:14,15.0883758,0.0001513,53.2181,55.6029,67.65,292.4653,-5.0688e-05,-1.095e-05,0.0,0 STARLINK-3592,1 51801U 22017AK  24223.53002810 -.00001095  00000-0 -50688-4 0  9997,2 51801  53.2181  55.6029 0001513  67.6500 292.4653 15.08837580136947,6917.888,95.438,540.799,538.706,0.0
51801.0,STARLINK-3592,PAYLOAD,2024-08-10 19:04:46,15.08843327,0.0001484,53.2173,54.4128,83.811,276.3051,3.4577e-05,2.62e-06,0.0,0 STARLINK-3592,1 51801U 22017AK  24223.79498419  .00000262  00000-0  34577-4 0  9991,2 51801  53.2173  54.4128 0001484  83.8110 276.3051 15.08843327136982,6917.87,95.437,540.762,538.709,0.0
51801.0,STARLINK-3592,PAYLOAD,2024-08-11 12:34:01,15.08834132,0.0001686,53.2172,51.1419,77.3593,282.7588,3.6428e-05,2.92e-06,0.0,0 STARLINK-3592,1 51801U 22017AK  24224.52363109  .00000292  00000-0  36428-4 0  9990,2 51801  53.2172  51.1419 0001686  77.3593 282.7588 15.08834132137098,6917.898,95.438,540.93,538.597,0.0
51801.0,STARLINK-3592,PAYLOAD,2024-08-11 18:55:33,15.08850081,0.0002148,53.2165,49.9517,85.3113,274.8125,0.00025572,3.785e-05,0.0,0 STARLINK-3592,1 51801U 22017AK  24224.78858392  .00003785  00000-0  25572-3 0  9998,2 51801  53.2165  49.9517 0002148  85.3113 274.8125 15.08850081137130,6917.85,95.437,541.201,538.229,0.0
51801.0,STARLINK-3592,PAYLOAD,2024-08-12 21:57:06,15.08861427,0.0002116,53.2213,44.8964,100.4059,259.7172,0.00041086,6.261e-05,0.0,0 STARLINK-3592,1 51801U 22017AK  24225.91465556  .00006261  00000-0  41086-3 0  9990,2 51801  53.2213  44.8964 0002116 100.4059 259.7172 15.08861427137306,6917.815,95.436,541.144,538.216,0.0
51801.0,STARLINK-3592,PAYLOAD,2024-08-13 12:15:34,15.08843012,0.000159,53.2109,42.2167,86.7075,273.4099,2.0639e-05,4e-07,0.0,0 STARLINK-3592,1 51801U 22017AK  24226.51081881  .00000040  00000-0  20639-4 0  9993,2 51801  53.2109  42.2167 0001590  86.7075 273.4099 15.08843012137396,6917.871,95.437,540.836,538.636,0.0
51801.0,STARLINK-3592,PAYLOAD,2024-08-13 21:47:53,15.0884529,0.00015,53.2134,40.4341,88.9555,271.1609,2.6183e-06,-2.46e-06,0.0,0 STARLINK-3592,1 51801U 22017AK  24226.90825506 -.00000246  00000-0  26183-5 0  9996,2 51801  53.2134  40.4341 0001500  88.9555 271.1609 15.08845290137455,6917.864,95.437,540.767,538.692,0.0
51801.0,STARLINK-3592,PAYLOAD,2024-08-14 12:06:22,15.08825927,0.0001972,53.2251,37.7618,104.2473,255.8738,-0.00018637,-3.252e-05,0.0,0 STARLINK-3592,1 51801U 22017AK  24227.50442679 -.00003252  00000-0 -18637-3 0  9993,2 51801  53.2251  37.7618 0001972 104.2473 255.8738 15.08825927137542,6917.923,95.438,541.153,538.424,0.0
51801.0,STARLINK-3592,PAYLOAD,2024-08-14 18:27:54,15.08833759,0.0001473,53.2185,36.5707,97.6029,262.513,-0.000298,-5.027e-05,0.0,0 STARLINK-3592,1 51801U 22017AK  24227.76938333 -.00005027  00000-0 -29800-3 0  9994,2 51801  53.2185  36.5707 0001473  97.6029 262.5130 15.08833759137589,6917.899,95.438,540.783,538.745,0.0
51801.0,STARLINK-3592,PAYLOAD,2024-08-15 04:00:12,15.0884658,0.0001129,53.2184,34.7817,88.4642,271.648,-9.1964e-05,-1.751e-05,0.0,0 STARLINK-3592,1 51801U 22017AK  24228.16681566 -.00001751  00000-0 -91964-4 0  9993,2 51801  53.2184  34.7817 0001129  88.4642 271.6480 15.08846580137649,6917.86,95.437,540.506,538.944,0.0
51801.0,STARLINK-3592,PAYLOAD,2024-08-16 03:51:00,15.08848868,0.0001386,53.2186,30.3224,82.065,278.0499,0.00026299,3.901e-05,0.0,0 STARLINK-3592,1 51801U 22017AK  24229.16041706  .00003901  00000-0  26299-3 0  9995,2 51801  53.2186  30.3224 0001386  82.0650 278.0499 15.08848868137797,6917.853,95.437,540.677,538.759,0.0
51801.0,STARLINK-3592,PAYLOAD,2024-08-16 19:44:52,15.08822313,0.0001278,53.2179,27.3505,87.9685,272.1454,-6.2067e-05,-1.275e-05,0.0,0 STARLINK-3592,1 51801U 22017AK  24229.82283350 -.00001275  00000-0 -62067-4 0  9999,2 51801  53.2179  27.3505 0001278  87.9685 272.1454 15.08822313137893,6917.934,95.439,540.684,538.915,0.0
51801.0,STARLINK-3592,PAYLOAD,2024-08-18 01:57:12,15.08831634,0.0001293,53.2194,21.699,87.5173,272.5967,-5.6862e-05,-1.192e-05,0.0,0 STARLINK-3592,1 51801U 22017AK  24231.08139830 -.00001192  00000-0 -56862-4 0  9997,2 51801  53.2194  21.6990 0001293  87.5173 272.5967 15.08831634138081,6917.906,95.438,540.665,538.876,0.0
51801.0,STARLINK-3592,PAYLOAD,2024-08-18 09:54:09,15.08814359,0.0001278,53.2186,20.2149,94.6518,265.462,3.0287e-05,1.94e-06,0.0,0 STARLINK-3592,1 51801U 22017AK  24231.41261477  .00000194  00000-0  30287-4 0  9999,2 51801  53.2186  20.2149 0001278  94.6518 265.4620 15.08814359138136,6917.959,95.439,540.708,538.94,0.0
51801.0,STARLINK-3592,PAYLOAD,2024-08-18 16:15:41,15.08833047,0.0001347,53.219,19.022,124.6399,235.472,0.00017714,2.532e-05,0.0,0 STARLINK-3592,1 51801U 22017AK  24231.67756041  .00002532  00000-0  17714-3 0  9990,2 51801  53.2190  19.0220 0001347 124.6399 235.4720 15.08833047138172,6917.902,95.438,540.698,538.835,0.0
51801.0,STARLINK-3592,PAYLOAD,2024-08-19 03:23:23,15.08837791,0.0001437,53.2192,16.9396,128.0631,232.0491,0.00019244,2.776e-05,0.0,0 STARLINK-3592,1 51801U 22017AK  24232.14123923  .00002776  00000-0  19244-3 0  9990,2 51801  53.2192  16.9396 0001437 128.0631 232.0491 15.08837791138247,6917.887,95.438,540.746,538.758,0.0
51801.0,STARLINK-3592,PAYLOAD,2024-08-20 14:21:51,15.08851332,0.0001418,53.2204,10.3989,109.6676,250.447,7.6871e-05,9.36e-06,0.0,0 STARLINK-3592,1 51801U 22017AK  24233.59851526  .00000936  00000-0  76871-4 0  9993,2 51801  53.2204  10.3989 0001418 109.6676 250.4470 15.08851332138462,6917.846,95.437,540.692,538.73,0.0
51801.0,STARLINK-3592,PAYLOAD,2024-08-21 12:37:16,15.08837101,0.0001553,53.2194,6.2371,101.7302,258.3864,-8.7671e-05,-1.683e-05,0.0,0 STARLINK-3592,1 51801U 22017AK  24234.52588702 -.00001683  00000-0 -87671-4 0  9992,2 51801  53.2194   6.2371 0001553 101.7302 258.3864 15.08837101138606,6917.889,95.438,540.829,538.68,0.0
51801.0,STARLINK-3592,PAYLOAD,2024-08-21 14:12:39,15.08838247,0.0001592,53.2196,5.9399,101.2165,258.9006,-7.7011e-05,-1.513e-05,0.0,0 STARLINK-3592,1 51801U 22017AK  24234.59212611 -.00001513  00000-0 -77011-4 0  9991,2 51801  53.2196   5.9399 0001592 101.2165 258.9006 15.08838247138616,6917.886,95.438,540.852,538.649,0.0
51801.0,STARLINK-3592,PAYLOAD,2024-08-21 15:48:02,15.08833996,0.0001601,53.2195,5.6449,95.7093,264.4082,-3.1607e-06,-3.38e-06,0.0,0 STARLINK-3592,1 51801U 22017AK  24234.65836526 -.00000338  00000-0 -31607-5 0  9991,2 51801  53.2195   5.6449 0001601  95.7093 264.4082 15.08833996138629,6917.899,95.438,540.871,538.656,0.0
51801.0,STARLINK-3592,PAYLOAD,2024-08-22 01:20:23,15.08813306,0.0001659,53.2183,3.8553,86.8413,273.2769,-0.00019796,-3.435e-05,0.0,0 STARLINK-3592,1 51801U 22017AK  24235.05582854 -.00003435  00000-0 -19796-3 0  9992,2 51801  53.2183   3.8553 0001659  86.8413 273.2769 15.08813306138681,6917.962,95.439,540.975,538.679,0.0
